[{"OBJECT_NAME":"YAOGAN-29","OBJECT_ID":"2015-069A","EPOCH":"2026-03-09T23:55:31.753056","MEAN_MOTION":14.82995409,"ECCENTRICITY":0.00019113,"INCLINATION":98.0143,"RA_OF_ASC_NODE":97.4271,"ARG_OF_PERICENTER":36.221,"MEAN_ANOMALY":323.9132,"EPHEMERIS_TYPE":0,"CLASSIFICATION_TYPE":"U","NORAD_CAT_ID":41038,"ELEMENT_SET_NO":999,"REV_AT_EPOCH":55592,"BSTAR":3.1956053e-5,"MEAN_MOTION_DOT":2.05e-6,"MEAN_MOTION_DDOT":0},{"OBJECT_NAME":"CZ-4C R\/B","OBJECT_ID":"2014-080D","EPOCH":"2026-03-09T12:51:50.928768","MEAN_MOTION":13.69825825,"ECCENTRICITY":0.05294592,"INCLINATION":63.4263,"RA_OF_ASC_NODE":126.2571,"ARG_OF_PERICENTER":352.8207,"MEAN_ANOMALY":6.5452,"EPHEMERIS_TYPE":0,"CLASSIFICATION_TYPE":"U","NORAD_CAT_ID":40341,"ELEMENT_SET_NO":999,"REV_AT_EPOCH":56217,"BSTAR":9.4821265e-5,"MEAN_MOTION_DOT":1.12e-6,"MEAN_MOTION_DDOT":0}]
